STARLINK-2461           
1 48428U 21040A   26068.52355379 -.00000247  00000+0  37803-5 0  9993
2 48428  53.1634 179.5041 0001422  95.7277 264.3886 15.30208541266654
HAWK-11B                
1 62379U 24247C   26068.44730104  .00009093  00000+0  32842-3 0  9993
2 62379  45.0161 115.7610 0004690 333.0326  27.0314 15.28847070 67738
